{
  "norad_id": 59841,
  "name": "STARLINK-31852",
  "history": [
    {
      "epoch": "2026-03-28T21:32:05.086176",
      "apogee_km": 483.55345993892206,
      "perigee_km": 482.58740193264657,
      "latitude_deg": -0.3167222093344722,
      "longitude_deg": -109.76101536001079,
      "semi_major_axis_km": 6861.207430935784,
      "eccentricity": 7.04e-05,
      "inclination_deg": 43.0029,
      "raan_deg": 158.1566,
      "arg_perigee_deg": 297.1176,
      "mean_anomaly_deg": 62.9604,
      "mean_motion_rev_day": 15.27572875
    }
  ]
}